STARLINK-11364 [DTC]    
1 61543U 24184M   25189.19329867 -.00000909  00000+0 -26635-5 0  9994
2 61543  53.1589   1.7439 0000053 348.4940  11.6077 15.69704887 42010
STARLINK-11349 [DTC]    
1 61544U 24184N   25189.50674196 -.00000653  00000+0 -54148-6 0  9995
2 61544  53.1590   0.1388 0000190 137.7925 222.3108 15.69703117 42069
STARLINK-32406          
1 61545U 24184P   25189.39860733 -.00000062  00000+0  10019-4 0  9997
2 61545  53.1606  68.7390 0001179  76.0318 284.0814 15.30194401 41101
STARLINK-32445          
1 61546U 24184Q   25188.95407161 -.00000073  00000+0  96573-5 0  9993
2 61546  53.1601  70.9452 0001197  72.7229 287.3902 15.30193122 41030
STARLINK-32411          
1 61547U 24184R   25189.39544682  .00001105  00000+0  49453-4 0  9993
2 61547  53.1598  68.7178 0001510 111.1514 248.9649 15.30183097 41109
STARLINK-32424          
1 61548U 24184S   25189.08153332  .00000931  00000+0  43584-4 0  9993
2 61548  53.1605  70.3152 0001388  81.0050 279.1108 15.30191691 41052
STARLINK-32389          
1 61549U 24184T   25189.39228028 -.00000136  00000+0  75525-5 0  9992
2 61549  53.1603  68.7035 0001423  82.5762 277.5401 15.30191204 41102
STARLINK-32476          
1 61550U 24184U   25189.07836539  .00000156  00000+0  17406-4 0  9995
2 61550  53.1600  70.2957 0001145  73.9619 286.1508 15.30195739 41053
STARLINK-32366          
1 61551U 24184V   25188.95723668 -.00000170  00000+0  64005-5 0  9995
2 61551  53.1609  70.9632 0001220  75.0282 285.0854 15.30195644 41038
STARLINK-11356 [DTC]    
1 61574U 24187A   25189.34999814 -.00000051  00000+0  44339-5 0  9991
2 61574  53.1590  60.7886 0000529 111.0731 249.0343 15.69708587 42404
STARLINK-11376 [DTC]    
1 61575U 24187B   25189.34509141 -.00000484  00000+0  85762-6 0  9998
2 61575  53.1590  60.7556 0000668  85.8503 274.2591 15.69708037 42324
STARLINK-11372 [DTC]    
1 61576U 24187C   25189.34018939 -.00000454  00000+0  11019-5 0  9999
2 61576  53.1591  60.7220 0000619  62.8569 297.2511 15.69707307 42378
STARLINK-11375 [DTC]    
1 61577U 24187D   25188.95328053 -.00003202  00000+0 -21606-4 0  9994
2 61577  53.1599  62.5722 0000853  42.8966 317.2119 15.69689534 42315
STARLINK-11285 [DTC]    
1 61578U 24187E   25188.94837330 -.00002359  00000+0 -14636-4 0  9994
2 61578  53.1589  62.5406 0000799  67.6626 292.4476 15.69690373 42268
STARLINK-11275 [DTC]    
1 61579U 24187F   25189.07077683  .00001145  00000+0  14295-4 0  9998
2 61579  53.1597  61.8782 0000699 107.4306 252.6789 15.69724068 42280
STARLINK-11342 [DTC]    
1 61580U 24187G   25189.06588205 -.00000244  00000+0  28385-5 0  9992
2 61580  53.1589  61.8492 0000674 108.8707 251.2384 15.69716772 42384
STARLINK-11374 [DTC]    
1 61581U 24187H   25189.06107978 -.00000161  00000+0  35208-5 0  9997
2 61581  53.1589  62.5518 0000650  75.2280 284.8810 15.69712907 42370
STARLINK-11373 [DTC]    
1 61582U 24187J   25189.37451987  .00000334  00000+0  76116-5 0  9998
2 61582  53.1598  60.9481 0000965  76.0674 284.0451 15.69711436 42376
STARLINK-11368 [DTC]    
1 61583U 24187K   25189.62429567  .00000359  00000+0  78210-5 0  9990
2 61583  53.1583  59.6616 0000786  62.5008 297.6090 15.69704069 42360
STARLINK-11370 [DTC]    
1 61584U 24187L   25189.36471798 -.00000868  00000+0 -23130-5 0  9993
2 61584  53.1601  60.8817 0001003  90.7088 269.4045 15.69702067 42377
STARLINK-11361 [DTC]    
1 61585U 24187M   25189.35981322 -.00001340  00000+0 -62091-5 0  9997
2 61585  53.1589  60.8474 0000880 115.9378 244.1730 15.69700932 42376
STARLINK-11360 [DTC]    
1 61586U 24187N   25189.35490125 -.00000105  00000+0  39905-5 0  9999
2 61586  53.1591  60.8142 0001000  60.0328 300.0789 15.69710113 42426
STARLINK-32353          
1 61587U 24187P   25189.07948138  .00027283  00000+0  92950-3 0  9993
2 61587  53.1592 121.1517 0001677  79.9595 280.1594 15.30214300 41572
STARLINK-32325          
1 61588U 24187Q   25189.22910784 -.00000368  00000+0 -28327-6 0  9994
2 61588  53.1603 120.6713 0001377  81.0362 279.0795 15.30195064 41655
STARLINK-32416          
1 61589U 24187R   25189.17165973 -.00024486  00000+0 -60193-3 0  9992
2 61589  53.1583 116.0458 0000368 116.1601 243.9442 15.39732176 41719
STARLINK-32413          
1 61590U 24187S   25189.50724882 -.00000596  00000+0 -79906-5 0  9991
2 61590  53.1597 119.5508 0001074  92.4437 267.6687 15.30193560 41698
STARLINK-32409          
1 61591U 24187T   25189.48730588  .00000298  00000+0  17424-4 0  9992
2 61591  53.1595 114.4589 0001063  97.7879 262.3246 15.39618759 41768
STARLINK-32422          
1 61592U 24187U   25189.51971583 -.00000866  00000+0 -11665-4 0  9993
2 61592  53.1592 113.9502 0001067  86.1925 273.9202 15.39618838 41772
STARLINK-32397          
1 61593U 24187V   25189.49511023  .00000008  00000+0  12397-4 0  9999
2 61593  53.1595 117.3505 0001007  87.1413 272.9703 15.30194134 41723
STARLINK-32302          
1 61621U 24191A   25189.43352428 -.00003680  00000+0 -12426-3 0  9995
2 61621  43.0042  93.6666 0000270 260.6708  99.4114 15.27589177 40931
STARLINK-32364          
1 61622U 24191B   25189.44379676  .00000453  00000+0  26010-4 0  9999
2 61622  43.0027  93.7497 0001238 271.7432  88.3278 15.27567446 40180
STARLINK-32331          
1 61623U 24191C   25189.45616591 -.00004340  00000+0 -14831-3 0  9999
2 61623  43.0049  97.3081 0001117 257.8382 102.2344 15.27574530 40147
STARLINK-32398          
1 61624U 24191D   25189.45536691  .00000875  00000+0  41322-4 0  9995
2 61624  43.0031  93.8354 0001026 280.3443  79.7293 15.27576798 40184
STARLINK-32365          
1 61625U 24191E   25189.43609422 -.00000588  00000+0 -11863-4 0  9997
2 61625  43.0015  93.6852 0001267 276.1368  83.9339 15.27568383 40183
STARLINK-32333          
1 61626U 24191F   25189.46772697 -.00000056  00000+0  74913-5 0  9991
2 61626  43.0030  97.3920 0001610 258.9258 101.1412 15.27573293 40143
STARLINK-32399          
1 61627U 24191G   25189.41521357 -.00002521  00000+0 -82100-4 0  9998
2 61627  42.9999  86.6081 0000910 262.2034  97.8714 15.27582691 40268
STARLINK-32421          
1 61628U 24191H   25189.46178372 -.00001976  00000+0 -62273-4 0  9991
2 61628  43.0028  93.8829 0001276 275.8305  84.2402 15.27592249 40186
STARLINK-32403          
1 61629U 24191J   25189.45152267 -.00001501  00000+0 -45084-4 0  9991
2 61629  43.0013  93.8071 0000661 340.6064  19.4762 15.27562214 40188
STARLINK-32390          
1 61630U 24191K   25189.14256425  .00003218  00000+0  12640-3 0  9996
2 61630  43.0007  95.7901 0001057 285.0455  75.0280 15.27579689 40134
STARLINK-32348          
1 61631U 24191L   25189.46002250  .00000195  00000+0  16606-4 0  9995
2 61631  43.0011  97.3383 0000573 333.9874  26.0948 15.27573282 40143
STARLINK-32455          
1 61632U 24191M   25189.14851133 -.00001788  00000+0 -55513-4 0  9994
2 61632  43.0027  99.2983 0001220 254.3434 105.7284 15.27560534 40094
STARLINK-32396          
1 61633U 24191N   25189.46388018 -.00000369  00000+0 -38870-5 0  9999
2 61633  43.0013  97.3648 0000541 286.1982  73.8810 15.27569985 40148
STARLINK-32355          
1 61634U 24191P   25189.15107854 -.00000038  00000+0  81383-5 0  9992
2 61634  43.0017  99.3166 0001128 269.4683  90.6040 15.27572530 40090
STARLINK-32370          
1 61635U 24191Q   25189.42967798  .00000703  00000+0  35065-4 0  9997
2 61635  42.9963  93.6383 0000387  68.4574 291.6318 15.27574943 40180
STARLINK-32405          
1 61636U 24191R   25189.08954265  .00000224  00000+0  17659-4 0  9992
2 61636  43.0023  99.7143 0001267 270.0289  90.0418 15.27573896 40080
STARLINK-32419          
1 61637U 24191S   25189.13870878  .00000126  00000+0  14093-4 0  9996
2 61637  43.0035  95.7541 0001403 247.9579 112.1123 15.27572708 40135
STARLINK-32320          
1 61638U 24191T   25189.09339124 -.00002522  00000+0 -82127-4 0  9993
2 61638  43.0022  99.7420 0001399 268.3905  91.6786 15.27586922 40089
STARLINK-32341          
1 61639U 24191U   25189.45793797 -.00000844  00000+0 -21164-4 0  9993
2 61639  43.0022  93.8506 0000694 254.6613 105.4162 15.27569760 40185
STARLINK-32339          
1 61640U 24191V   25188.11802224  .00006786  00000+0  25565-3 0  9990
2 61640  43.0002 100.9939 0002096 279.8990  80.1625 15.27613204 40692
STARLINK-32327          
1 61641U 24191W   25189.04762515 -.00001274  00000+0 -36788-4 0  9991
2 61641  42.9985  95.9235 0000298 318.5630  41.5199 15.27580771 40124
STARLINK-32264          
1 61642U 24191X   25189.47158002  .00000116  00000+0  13732-4 0  9995
2 61642  43.0022  97.4213 0001356 263.2592  96.8105 15.27576397 40142
STARLINK-32337          
1 61643U 24191Y   25189.44765388 -.00000542  00000+0 -10178-4 0  9990
2 61643  43.0008  93.7713 0001014 271.3479  88.7256 15.27570184 40949
STARLINK-32238          
1 61661U 24193A   25189.14916892 -.00000046  00000+0  10564-4 0  9994
2 61661  53.1595 147.0719 0001352  84.4242 275.6913 15.30190702 39085
STARLINK-32310          
1 61662U 24193B   25189.58632787 -.00001238  00000+0 -29691-4 0  9997
2 61662  53.1594 144.8198 0001277  98.5305 261.5840 15.30185929 39159
STARLINK-32308          
1 61663U 24193C   25189.29973416 -.00000108  00000+0  84835-5 0  9999
2 61663  53.1602 145.8736 0001316  82.8497 277.2653 15.30195934 39110
STARLINK-32301          
1 61664U 24193D   25189.15655584  .00000406  00000+0  25848-4 0  9996
2 61664  53.1594 147.1186 0001327  81.2973 278.8178 15.30189873 39089
STARLINK-32439          
1 61665U 24193E   25189.16183180  .00000143  00000+0  16964-4 0  9993
2 61665  53.1594 147.1444 0001355  84.0051 276.1105 15.30191516 39084
STARLINK-32428          
1 61666U 24193F   25189.57471360  .00000738  00000+0  37061-4 0  9990
2 61666  53.1607 144.7469 0001203  91.2855 268.8283 15.30194053 39156
STARLINK-32414          
1 61667U 24193G   25189.15022459 -.00000567  00000+0 -70070-5 0  9996
2 61667  53.1593 147.0779 0001285  76.2371 283.8773 15.30189246 39088
